ONEWEB-0056             
1 45159U 20008AE  24179.70046533  .00000081  00000+0  19621-3 0  9995
2 45159  87.8930 179.3327 0002091  94.0431 266.0935 13.10369445214718
ONEWEB-0057             
1 45160U 20008AF  24179.09623334 -.00000352  00000+0 -10459-2 0  9991
2 45160  87.8934 179.4533 0002118  89.0816 271.0554 13.10369757214534
ONEWEB-0058             
1 45161U 20008AG  24179.46489794  .00000411  00000+0  11415-2 0  9990
2 45161  87.8927 179.4150 0002154  85.2362 274.9012 13.10371073214913
ONEWEB-0059             
1 45162U 20008AH  24179.53779871  .00000539  00000+0  15079-2 0  9998
2 45162  87.8932 179.3813 0002042  83.0402 277.0957 13.10370239214816
ONEWEB-0062             
1 45163U 20008AJ  24179.48798358 -.00000632  00000+0 -18465-2 0  9992
2 45163  87.8934 179.3756 0001827  79.6177 280.5157 13.10372912214681
ONEWEB-0065             
1 45164U 20008AK  24179.46641568  .00000296  00000+0  81167-3 0  9995
2 45164  87.8935 179.3867 0002032  94.0300 266.1060 13.10369169214362
ONEWEB-0066             
1 45424U 20020A   24179.51555724 -.00000331  00000+0 -96992-3 0  9996
2 45424  87.8961 164.2821 0002467  86.4477 273.6933 13.11414778208368
ONEWEB-0067             
1 45425U 20020B   24179.47669523  .00000444  00000+0  12171-2 0  9994
2 45425  87.8952 164.2500 0002289  89.8481 270.2909 13.11419882208410
